OBJECT_NAME,OBJECT_ID,EPOCH,MEAN_MOTION,ECCENTRICITY,INCLINATION,RA_OF_ASC_NODE,ARG_OF_PERICENTER,MEAN_ANOMALY,EPHEMERIS_TYPE,CLASSIFICATION_TYPE,NORAD_CAT_ID,ELEMENT_SET_NO,REV_AT_EPOCH,BSTAR,MEAN_MOTION_DOT,MEAN_MOTION_DDOT
2026-134H,2026-134H,2026-07-05T14:42:47.615904,15.09860793,.00152199,97.7020,256.8086,212.0200,148.0105,0,U,69545,999,307,.43849453E-3,.7052E-4,0
STARLINK-37880,2026-135A,2026-07-05T13:45:57.189312,15.80608679,.00014757,97.2843,214.6334,69.1345,291.0081,0,U,69546,999,316,-.11421204E-2,-.211688E-2,0
STARLINK-37881,2026-135B,2026-07-05T12:13:58.060128,15.80963340,.0001316,97.2843,214.5671,50.9589,309.1797,0,U,69547,999,315,.27195E-2,.559362E-2,0
STARLINK-37865,2026-135E,2026-07-05T12:09:32.908032,15.80896305,.0000757,97.2846,214.5703,103.0129,257.1224,0,U,69550,999,315,.16398E-2,.32724E-2,0
STARLINK-37862,2026-135F,2026-07-05T12:05:30.897312,15.80933630,.0001169,97.2843,214.5746,37.9006,322.2344,0,U,69551,999,315,.19167E-2,.385782E-2,0
STARLINK-37861,2026-135G,2026-07-05T12:02:46.584384,15.80934726,.0001397,97.2841,214.5772,64.0215,296.1197,0,U,69552,999,315,.18483E-2,.371397E-2,0
STARLINK-37859,2026-135H,2026-07-05T14:00:03.000384,15.80829738,.00011578,97.2850,214.6647,72.7980,35.8215,0,U,69553,999,426,.65883926E-4,.12504E-3,0
STARLINK-37860,2026-135J,2026-07-05T12:01:27.404832,15.80563128,.0004526,97.2833,214.5796,44.4636,315.6995,0,U,69554,999,315,.9148E-2,.1996424E-1,0
STARLINK-37858,2026-135K,2026-07-04T01:01:52.518144,15.80969658,.0001544,97.2826,213.0416,124.8272,235.3142,0,U,69555,999,292,.15434E-2,.308347E-2,0
STARLINK-37927,2026-135L,2026-07-05T08:56:06.364032,15.80824957,.0001244,97.2834,214.4487,150.3245,209.8094,0,U,69556,999,313,.35083E-2,.731774E-2,0
STARLINK-37929,2026-135M,2026-07-05T11:56:52.080000,15.80951717,.0001313,97.2839,214.5832,14.0757,346.0547,0,U,69557,999,315,.16327E-2,.326612E-2,0
STARLINK-37954,2026-135N,2026-07-05T01:17:01.949856,15.80915360,.0001458,97.2846,214.1163,84.7479,275.3956,0,U,69558,999,308,.16957E-2,.339154E-2,0
STARLINK-37958,2026-135P,2026-07-04T00:00:02.998944,15.80773563,.0001423,97.2829,213.0090,88.1489,54.8962,0,U,69559,999,401,.55099E-3,.106489E-2,0
STARLINK-37950,2026-135Q,2026-07-05T01:13:16.573728,15.81404715,.0003041,97.2845,214.1194,153.7205,206.4219,0,U,69560,999,308,.6828E-2,.1526409E-1,0
STARLINK-37952,2026-135R,2026-07-05T13:20:30.925536,15.81000771,.00015859,97.2832,214.6586,28.4371,331.6984,0,U,69561,999,316,.25464755E-2,.52239E-2,0
STARLINK-37935,2026-135S,2026-07-05T05:43:36.685056,15.80911304,.0000788,97.2834,214.3248,111.4540,248.6812,0,U,69562,999,311,.13945E-2,.276828E-2,0
STARLINK-37936,2026-135T,2026-07-05T04:01:48.879840,15.80960470,.0000798,97.2835,214.2671,119.3960,240.7388,0,U,69563,999,310,-.80102E-3,-.151928E-2,0
STARLINK-37932,2026-135U,2026-07-05T04:01:50.219904,15.80865407,.0003,97.2825,214.2669,127.3814,232.7728,0,U,69564,999,310,.22252E-2,.449826E-2,0
STARLINK-37916,2026-135V,2026-07-05T13:07:58.430784,15.80911587,.00016093,97.2829,214.6693,89.4001,270.7452,0,U,69565,999,316,.13501028E-2,.267728E-2,0
STARLINK-37909,2026-135W,2026-07-05T12:58:53.008320,15.80980793,.00008404,97.2829,214.6791,62.2678,297.8676,0,U,69566,999,316,.21726072E-2,.441095E-2,0
STARLINK-37934,2026-135X,2026-07-05T13:03:31.206816,15.80909123,.00014758,97.2830,214.6745,80.7413,279.4022,0,U,69567,999,316,.18504766E-2,.371404E-2,0
STARLINK-37938,2026-135Y,2026-07-05T12:59:58.708608,15.80934315,.00013355,97.2835,214.6789,36.1916,323.9443,0,U,69568,999,316,.17818018E-2,.357448E-2,0
STARLINK-37924,2026-135Z,2026-07-05T12:56:00.535776,15.80933354,.00022151,97.2831,214.6814,75.8787,284.2728,0,U,69569,999,316,.17833335E-2,.35775E-2,0
GUOWANG OBJECT A,2026-137A,2026-07-05T09:56:40.585632,13.89812734,.0012634,49.9989,182.8274,285.7485,74.2020,0,U,69572,999,255,.53311E-4,-.8E-6,0
GUOWANG OBJECT B,2026-137B,2026-07-04T06:15:47.203200,13.89804927,.0011845,50.0015,187.3886,281.1444,78.8122,0,U,69573,999,240,-.97862E-5,-.158E-5,0
