2026-134H               
1 69545U 26134H   26186.61305111  .00007052  00000+0  43849-3 0  9990
2 69545  97.7020 256.8086 0015219 212.0200 148.0105 15.09860793  3073
STARLINK-37880          
1 69546U 26135A   26186.57357858 -.00211688  00000+0 -11421-2 0  9996
2 69546  97.2843 214.6334 0001475  69.1345 291.0081 15.80608679  3164
STARLINK-37881          
1 69547U 26135B   26186.50969978  .00559362  00000+0  27195-2 0  9999
2 69547  97.2843 214.5671 0001315  50.9589 309.1797 15.80963340  3152
STARLINK-37865          
1 69550U 26135E   26186.50663089  .00327240  00000+0  16398-2 0  9998
2 69550  97.2846 214.5703 0000757 103.0129 257.1224 15.80896305  3157
STARLINK-37862          
1 69551U 26135F   26186.50382983  .00385782  00000+0  19167-2 0  9992
2 69551  97.2843 214.5746 0001169  37.9006 322.2344 15.80933630  3159
STARLINK-37861          
1 69552U 26135G   26186.50192806  .00371398  00000+0  18483-2 0  9994
2 69552  97.2841 214.5772 0001396  64.0215 296.1197 15.80934726  3154
STARLINK-37859          
1 69553U 26135H   26186.58336806  .00012504  00000+0  65884-4 0  9993
2 69553  97.2850 214.6647 0001157  72.7980  35.8215 15.80829738  4265
STARLINK-37860          
1 69554U 26135J   26186.50101164  .01996424  00000+0  91480-2 0  9995
2 69554  97.2833 214.5796 0004526  44.4636 315.6995 15.80563128  3157
STARLINK-37858          
1 69555U 26135K   26185.04296896  .00308347  00000+0  15434-2 0  9996
2 69555  97.2826 213.0416 0001544 124.8272 235.3142 15.80969658  2923
STARLINK-37927          
1 69556U 26135L   26186.37229589  .00731774  00000+0  35083-2 0  9995
2 69556  97.2834 214.4487 0001244 150.3245 209.8094 15.80824957  3135
STARLINK-37929          
1 69557U 26135M   26186.49782501  .00326612  00000+0  16327-2 0  9998
2 69557  97.2839 214.5832 0001313  14.0757 346.0547 15.80951717  3151
STARLINK-37954          
1 69558U 26135N   26186.05349480  .00339154  00000+0  16957-2 0  9990
2 69558  97.2846 214.1163 0001458  84.7479 275.3956 15.80915360  3082
STARLINK-37958          
1 69559U 26135P   26185.00003471  .00106489  00000+0  55099-3 0  9996
2 69559  97.2829 213.0090 0001423  88.1489  54.8962 15.80773563  4010
STARLINK-37950          
1 69560U 26135Q   26186.05088628  .01526409  00000+0  68280-2 0  9995
2 69560  97.2845 214.1194 0003041 153.7205 206.4219 15.81404715  3087
STARLINK-37952          
1 69561U 26135R   26186.55591349  .00522390  00000+0  25465-2 0  9992
2 69561  97.2832 214.6586 0001585  28.4371 331.6984 15.81000771  3160
STARLINK-37935          
1 69562U 26135S   26186.23861904  .00276828  00000+0  13945-2 0  9997
2 69562  97.2834 214.3248 0000788 111.4540 248.6812 15.80911304  3114
STARLINK-37936          
1 69563U 26135T   26186.16792686 -.00151928  00000+0 -80102-3 0  9995
2 69563  97.2835 214.2671 0000797 119.3960 240.7388 15.80960470  3106
STARLINK-37932          
1 69564U 26135U   26186.16794237  .00449826  00000+0  22252-2 0  9996
2 69564  97.2825 214.2669 0003000 127.3814 232.7728 15.80865407  3103
STARLINK-37916          
1 69565U 26135V   26186.54720406  .00267728  00000+0  13501-2 0  9992
2 69565  97.2829 214.6693 0001609  89.4001 270.7452 15.80911587  3161
STARLINK-37909          
1 69566U 26135W   26186.54089130  .00441095  00000+0  21726-2 0  9994
2 69566  97.2829 214.6791 0000840  62.2678 297.8676 15.80980793  3169
STARLINK-37934          
1 69567U 26135X   26186.54411119  .00371404  00000+0  18505-2 0  9998
2 69567  97.2830 214.6745 0001475  80.7413 279.4022 15.80909123  3167
STARLINK-37938          
1 69568U 26135Y   26186.54165172  .00357448  00000+0  17818-2 0  9992
2 69568  97.2835 214.6789 0001335  36.1916 323.9443 15.80934315  3162
STARLINK-37924          
1 69569U 26135Z   26186.53889509  .00357750  00000+0  17833-2 0  9992
2 69569  97.2831 214.6814 0002215  75.8787 284.2728 15.80933354  3169
GUOWANG OBJECT A        
1 69572U 26137A   26186.41435863 -.00000080  00000+0  53311-4 0  9990
2 69572  49.9989 182.8274 0012634 285.7485  74.2020 13.89812734  2559
GUOWANG OBJECT B        
1 69573U 26137B   26185.26096300 -.00000158  00000+0 -97862-5 0  9999
2 69573  50.0015 187.3886 0011845 281.1444  78.8122 13.89804927  2402
